{"type": "FeatureCollection", "features": [ {"type": "Feature", "properties": {"norad_id": 38212, "name": "COSMOS 2251 DEB", "group": "cosmos-2251-debris", "lat": -44.168113787202714, "lon": -100.12000531986452, "alt_km": 650.7340767880896, "timestamp": "2025-12-19T06:59:44.304910+00:00", "meta": {"OBJECT_NAME": "COSMOS 2251 DEB", "OBJECT_ID": "1993-036BTC", "EPOCH": "2025-12-16T22:44:21.570432", "MEAN_MOTION": 14.77712349, "ECCENTRICITY": 0.00922486, "INCLINATION": 74.0525, "RA_OF_ASC_NODE": 68.3479, "ARG_OF_PERICENTER": 134.0711, "MEAN_ANOMALY": 226.8108, "EPHEMERIS_TYPE": 0, "CLASSIFICATION_TYPE": "U", "NORAD_CAT_ID": 38212, "ELEMENT_SET_NO": 999, "REV_AT_EPOCH": 81372, "BSTAR": 0.00029648241, "MEAN_MOTION_DOT": 2.245e-05, "MEAN_MOTION_DDOT": 0}, "tle": {"line1": "1 38212U 93036BTC 25350.94747188  .00002245  00000+0  29648-3 0  9994", "line2": "2 38212  74.0525  68.3479 0092248 134.0711 226.8108 14.77712349813723"}}, "geometry": {"type": "Point", "coordinates": [-100.12000531986452, -44.168113787202714]}}, {"type": "Feature", "properties": {"norad_id": 38220, "name": "COSMOS 2251 DEB", "group": "cosmos-2251-debris", "lat": 16.718486398916422, "lon": 60.044579642013645, "alt_km": 584.4262930107852, "timestamp": "2025-12-19T06:59:44.304920+00:00", "meta": {"OBJECT_NAME": "COSMOS 2251 DEB", "OBJECT_ID": "1993-036BTL", "EPOCH": "2025-12-17T11:30:14.878368", "MEAN_MOTION": 14.9320096, "ECCENTRICITY": 0.00051577, "INCLINATION": 74.0158, "RA_OF_ASC_NODE": 58.7526, "ARG_OF_PERICENTER": 31.4503, "MEAN_ANOMALY": 328.6988, "EPHEMERIS_TYPE": 0, "CLASSIFICATION_TYPE": "U", "NORAD_CAT_ID": 38220, "ELEMENT_SET_NO": 999, "REV_AT_EPOCH": 71441, "BSTAR": 0.0021815417, "MEAN_MOTION_DOT": 0.00022841, "MEAN_MOTION_DDOT": 0}, "tle": {"line1": "1 38220U 93036BTL 25351.47933887  .00022841  00000+0  21815-2 0  9996", "line2": "2 38220  74.0158  58.7526 0005157  31.4503 328.6988 14.93200960714414"}}, "geometry": {"type": "Point", "coordinates": [60.044579642013645, 16.718486398916422]}}, {"type": "Feature", "properties": {"norad_id": 38479, "name": "COSMOS 2251 DEB", "group": "cosmos-2251-debris", "lat": -59.755405438043134, "lon": 142.72403210111912, "alt_km": 712.9281419819017, "timestamp": "2025-12-19T06:59:44.304930+00:00", "meta": {"OBJECT_NAME": "COSMOS 2251 DEB", "OBJECT_ID": "1993-036BTP", "EPOCH": "2025-12-13T19:29:32.997408", "MEAN_MOTION": 14.3831318, "ECCENTRICITY": 0.0084157, "INCLINATION": 74.007, "RA_OF_ASC_NODE": 182.3013, "ARG_OF_PERICENTER": 291.0961, "MEAN_ANOMALY": 83.9532, "EPHEMERIS_TYPE": 0, "CLASSIFICATION_TYPE": "U", "NORAD_CAT_ID": 38479, "ELEMENT_SET_NO": 999, "REV_AT_EPOCH": 64703, "BSTAR": 0.0021939338, "MEAN_MOTION_DOT": 6.938e-05, "MEAN_MOTION_DDOT": 0}, "tle": {"line1": "1 38479U 93036BTP 25347.81218747  .00006938  00000+0  21939-2 0  9992", "line2": "2 38479  74.0070 182.3013 0084157 291.0961  83.9532 14.38313180647034"}}, "geometry": {"type": "Point", "coordinates": [142.72403210111912, -59.755405438043134]}}, {"type": "Feature", "properties": {"norad_id": 38481, "name": "COSMOS 2251 DEB", "group": "cosmos-2251-debris", "lat": -66.8130053591601, "lon": -141.47919805689696, "alt_km": 789.9955108473087, "timestamp": "2025-12-19T06:59:44.304940+00:00", "meta": {"OBJECT_NAME": "COSMOS 2251 DEB", "OBJECT_ID": "1993-036BTR", "EPOCH": "2025-12-17T17:37:11.726400", "MEAN_MOTION": 13.94852214, "ECCENTRICITY": 0.02348213, "INCLINATION": 73.9324, "RA_OF_ASC_NODE": 358.9239, "ARG_OF_PERICENTER": 298.2644, "MEAN_ANOMALY": 59.4964, "EPHEMERIS_TYPE": 0, "CLASSIFICATION_TYPE": "U", "NORAD_CAT_ID": 38481, "ELEMENT_SET_NO": 999, "REV_AT_EPOCH": 59130, "BSTAR": 0.0012605173, "MEAN_MOTION_DOT": 2.103e-05, "MEAN_MOTION_DDOT": 0}, "tle": {"line1": "1 38481U 93036BTR 25351.73416350  .00002103  00000+0  12605-2 0  9991", "line2": "2 38481  73.9324 358.9239 0234821 298.2644  59.4964 13.94852214591302"}}, "geometry": {"type": "Point", "coordinates": [-141.47919805689696, -66.8130053591601]}}, {"type": "Feature", "properties": {"norad_id": 38483, "name": "COSMOS 2251 DEB", "group": "cosmos-2251-debris", "lat": 69.62472745673703, "lon": 49.42103429028761, "alt_km": 717.2953236335479, "timestamp": "2025-12-19T06:59:44.304951+00:00", "meta": {"OBJECT_NAME": "COSMOS 2251 DEB", "OBJECT_ID": "1993-036BTT", "EPOCH": "2025-12-12T08:16:48.530496", "MEAN_MOTION": 14.28787654, "ECCENTRICITY": 0.01107994, "INCLINATION": 74.262, "RA_OF_ASC_NODE": 12.4521, "ARG_OF_PERICENTER": 118.0167, "MEAN_ANOMALY": 243.2246, "EPHEMERIS_TYPE": 0, "CLASSIFICATION_TYPE": "U", "NORAD_CAT_ID": 38483, "ELEMENT_SET_NO": 999, "REV_AT_EPOCH": 63472, "BSTAR": 0.0012977102, "MEAN_MOTION_DOT": 3.471e-05, "MEAN_MOTION_DDOT": 0}, "tle": {"line1": "1 38483U 93036BTT 25346.34500614  .00003471  00000+0  12977-2 0  9992", "line2": "2 38483  74.2620  12.4521 0110799 118.0167 243.2246 14.28787654634722"}}, "geometry": {"type": "Point", "coordinates": [49.42103429028761, 69.62472745673703]}}, {"type": "Feature", "properties": {"norad_id": 38486, "name": "COSMOS 2251 DEB", "group": "cosmos-2251-debris", "lat": 27.040953023063793, "lon": -159.52999923404963, "alt_km": 635.9345031621124, "timestamp": "2025-12-19T06:59:44.304961+00:00", "meta": {"OBJECT_NAME": "COSMOS 2251 DEB", "OBJECT_ID": "1993-036BTW", "EPOCH": "2025-12-16T20:16:12.499104", "MEAN_MOTION": 14.73366046, "ECCENTRICITY": 0.00303976, "INCLINATION": 73.9413, "RA_OF_ASC_NODE": 196.8105, "ARG_OF_PERICENTER": 340.5168, "MEAN_ANOMALY": 34.0397, "EPHEMERIS_TYPE": 0, "CLASSIFICATION_TYPE": "U", "NORAD_CAT_ID": 38486, "ELEMENT_SET_NO": 999, "REV_AT_EPOCH": 75495, "BSTAR": 0.0017008864, "MEAN_MOTION_DOT": 0.00011084, "MEAN_MOTION_DDOT": 0}, "tle": {"line1": "1 38486U 93036BTW 25350.84458911  .00011084  00000+0  17009-2 0  9997", "line2": "2 38486  73.9413 196.8105 0030397 340.5168  34.0397 14.73366046754953"}}, "geometry": {"type": "Point", "coordinates": [-159.52999923404963, 27.040953023063793]}}, {"type": "Feature", "properties": {"norad_id": 38487, "name": "COSMOS 2251 DEB", "group": "cosmos-2251-debris", "lat": 49.646787478766875, "lon": -179.68244999576515, "alt_km": 501.3691499301185, "timestamp": "2025-12-19T06:59:44.304971+00:00", "meta": {"OBJECT_NAME": "COSMOS 2251 DEB", "OBJECT_ID": "1993-036BTX", "EPOCH": "2025-12-18T08:17:15.140832", "MEAN_MOTION": 15.17739234, "ECCENTRICITY": 0.00209744, "INCLINATION": 73.9753, "RA_OF_ASC_NODE": 22.0718, "ARG_OF_PERICENTER": 194.1031, "MEAN_ANOMALY": 165.9582, "EPHEMERIS_TYPE": 0, "CLASSIFICATION_TYPE": "U", "NORAD_CAT_ID": 38487, "ELEMENT_SET_NO": 999, "REV_AT_EPOCH": 66885, "BSTAR": 0.0016984027, "MEAN_MOTION_DOT": 0.00034604, "MEAN_MOTION_DDOT": 0}, "tle": {"line1": "1 38487U 93036BTX 25352.34531413  .00034604  00000+0  16984-2 0  9998", "line2": "2 38487  73.9753  22.0718 0020974 194.1031 165.9582 15.17739234668858"}}, "geometry": {"type": "Point", "coordinates": [-179.68244999576515, 49.646787478766875]}}, {"type": "Feature", "properties": {"norad_id": 39109, "name": "COSMOS 2251 DEB", "group": "cosmos-2251-debris", "lat": 24.551412973696618, "lon": -140.12271444568674, "alt_km": 644.1456446974917, "timestamp": "2025-12-19T06:59:44.304981+00:00", "meta": {"OBJECT_NAME": "COSMOS 2251 DEB", "OBJECT_ID": "1993-036BTY", "EPOCH": "2025-12-16T09:28:20.054784", "MEAN_MOTION": 14.70744531, "ECCENTRICITY": 0.00594106, "INCLINATION": 74.0429, "RA_OF_ASC_NODE": 217.9855, "ARG_OF_PERICENTER": 320.6122, "MEAN_ANOMALY": 213.0839, "EPHEMERIS_TYPE": 0, "CLASSIFICATION_TYPE": "U", "NORAD_CAT_ID": 39109, "ELEMENT_SET_NO": 999, "REV_AT_EPOCH": 65227, "BSTAR": 0.00033652687, "MEAN_MOTION_DOT": 2.076e-05, "MEAN_MOTION_DDOT": 0}, "tle": {"line1": "1 39109U 93036BTY 25350.39467656  .00002076  00000+0  33653-3 0  9991", "line2": "2 39109  74.0429 217.9855 0059410 320.6122 213.0839 14.70744531652276"}}, "geometry": {"type": "Point", "coordinates": [-140.12271444568674, 24.551412973696618]}}, {"type": "Feature", "properties": {"norad_id": 39110, "name": "COSMOS 2251 DEB", "group": "cosmos-2251-debris", "lat": -58.733908887658544, "lon": -103.02043633150056, "alt_km": 605.5609662966644, "timestamp": "2025-12-19T06:59:44.304993+00:00", "meta": {"OBJECT_NAME": "COSMOS 2251 DEB", "OBJECT_ID": "1993-036BTZ", "EPOCH": "2025-12-17T22:04:59.920608", "MEAN_MOTION": 14.72312711, "ECCENTRICITY": 0.00972569, "INCLINATION": 73.9594, "RA_OF_ASC_NODE": 51.3772, "ARG_OF_PERICENTER": 282.7235, "MEAN_ANOMALY": 255.0933, "EPHEMERIS_TYPE": 0, "CLASSIFICATION_TYPE": "U", "NORAD_CAT_ID": 39110, "ELEMENT_SET_NO": 999, "REV_AT_EPOCH": 62560, "BSTAR": 0.00028872963, "MEAN_MOTION_DOT": 1.929e-05, "MEAN_MOTION_DDOT": 0}, "tle": {"line1": "1 39110U 93036BTZ 25351.92013797  .00001929  00000+0  28873-3 0  9990", "line2": "2 39110  73.9594  51.3772 0097256 282.7235 255.0933 14.72312711625601"}}, "geometry": {"type": "Point", "coordinates": [-103.02043633150056, -58.733908887658544]}}, {"type": "Feature", "properties": {"norad_id": 39111, "name": "COSMOS 2251 DEB", "group": "cosmos-2251-debris", "lat": 73.40147803402121, "lon": 133.298306347171, "alt_km": 513.2565478827983, "timestamp": "2025-12-19T06:59:44.305005+00:00", "meta": {"OBJECT_NAME": "COSMOS 2251 DEB", "OBJECT_ID": "1993-036BUA", "EPOCH": "2025-12-01T22:58:55.551360", "MEAN_MOTION": 15.11912111, "ECCENTRICITY": 0.00109111, "INCLINATION": 74.0059, "RA_OF_ASC_NODE": 63.5328, "ARG_OF_PERICENTER": 39.1207, "MEAN_ANOMALY": 321.0773, "EPHEMERIS_TYPE": 0, "CLASSIFICATION_TYPE": "U", "NORAD_CAT_ID": 39111, "ELEMENT_SET_NO": 999, "REV_AT_EPOCH": 8982, "BSTAR": 0.0056424119, "MEAN_MOTION_DOT": 0.00098096, "MEAN_MOTION_DDOT": 0}, "tle": {"line1": "1 39111U 93036BUA 25335.95758740  .00098096  00000+0  56424-2 0  9993", "line2": "2 39111  74.0059  63.5328 0010911  39.1207 321.0773 15.11912111 89826"}}, "geometry": {"type": "Point", "coordinates": [133.298306347171, 73.40147803402121]}}]}